TDRS 3                  
1 19548U 88091B   20358.05054347 -.00000296  00000-0  00000+0 0  9996
2 19548  14.0724 355.7718 0039021 318.9420 106.5719  1.00278975105290
HST                     
1 20580U 90037B   20357.15072579  .00000526  00000-0  20928-4 0  9995
2 20580  28.4685 158.1257 0002587 316.5496 207.0123 15.09515727484312
TDRS 5                  
1 21639U 91054B   20357.48826819  .00000086  00000-0  00000-0 0  9997
2 21639  14.2511   9.0806 0023477 356.3751  94.0583  1.00269582107632
TDRS 6                  
1 22314U 93003B   20357.43477894 -.00000293  00000-0  00000-0 0  9995
2 22314  14.0727  12.2511 0004833  79.1626 110.4867  1.00279940102323
TDRS 7                  
1 23613U 95035B   20357.82741130 -.00000199  00000-0  00000+0 0  9999
2 23613  14.1536   2.9296 0026087  30.0750  81.4719  1.00276161 93076
ISS (ZARYA)             
1 25544U 98067A   20358.22894200  .00001982  00000-0  43799-4 0  9991
2 25544  51.6447 133.0898 0001494 153.5756 270.4426 15.49217979261324
LANDSAT 7               
1 25682U 99020A   20358.17713846  .00000015  00000-0  13116-4 0  9990
2 25682  98.0589  55.0461 0001359  71.2580 288.8759 14.57193596153721
TERRA                   
1 25994U 99068A   20358.15946155  .00000080  00000-0  27752-4 0  9990
2 25994  98.1965  69.6456 0001204  98.4107 318.1124 14.57114936117797
TDRS 8                  
1 26388U 00034A   20358.07292441 -.00000226  00000-0  00000+0 0  9991
2 26388   9.5228  46.2534 0017663 316.1070 205.1876  1.00266728 75092
TIMED                   
1 26998U 01055B   20357.48725678  .00000198  00000-0  25531-4 0  9997
2 26998  74.0727 278.8601 0002419 281.4026  78.6883 14.88250471 32414
TDRS 9                  
1 27389U 02011A   20357.37942260 -.00000282  00000-0  00000-0 0  9996
2 27389   7.8814  65.7191 0026771 275.9972 184.0782  1.00272699 70364
AQUA                    
1 27424U 02022A   20358.12375789  .00000137  00000-0  40499-4 0  9996
2 27424  98.2118 295.9753 0002354 102.1879  24.0072 14.57108993991395
TDRS 10                 
1 27566U 02055A   20358.18417094  .00000097  00000-0  00000+0 0  9995
2 27566   7.2351  52.7426 0008801 274.1391  20.3831  1.00271390 66154
SORCE                   
1 27651U 03004A   20358.09235005  .00000216  00000-0  36467-4 0  9999
2 27651  39.9970 357.9920 0023341 265.8276  93.9845 14.89206513972357
AURA                    
1 28376U 04026A   20357.41863378  .00000142  00000-0  41678-4 0  9992
2 28376  98.2122 297.4398 0001454  77.7595 282.3766 14.57111070874299
SWIFT                   
1 28485U 04047A   20357.08272423  .00000990  00000-0  37047-4 0  9990
2 28485  20.5555 151.2388 0010901 270.8651  89.0534 15.04800469881765
THEMIS A                
1 30580U 07004A   20357.51704779 -.00000689  00000-0  00000+0 0  9997
2 30580  16.0760  31.3752 8403083  65.2685 356.1360  0.87834588 48363
THEMIS D                
1 30797U 07004D   20357.49508538 -.00000671  00000-0  00000+0 0  9990
2 30797  13.7413  14.9190 8373744  83.4163 354.0347  0.87836805 47880
THEMIS E                
1 30798U 07004E   20357.55471299 -.00000650  00000-0  00000+0 0  9998
2 30798  13.2238  26.3517 8367591  74.8488 354.9905  0.87841019 48296
AIM                     
1 31304U 07015A   20357.76497423  .00001591  00000-0  91618-4 0  9998
2 31304  97.8848 247.3394 0006620  76.7100 283.4869 15.13979189749175
FGRST (GLAST)           
1 33053U 08029A   20357.41320011  .00000678  00000-0  22020-4 0  9993
2 33053  25.5823 260.3116 0012412  24.6025 335.5101 15.11431620691726
WISE                    
1 36119U 09071A   20357.73133519  .00001433  00000-0  51169-4 0  9993
2 36119  97.3071  31.2780 0004232  81.0751 279.0969 15.30478413612617
TDRS 11                 
1 39070U 13004A   20357.47319366  .00000087  00000-0  00000-0 0  9998
2 39070   3.5675 334.6471 0003113  16.0277  96.9267  1.00265328 26617
TDRS 12                 
1 39504U 14004A   20358.03646590 -.00000261  00000-0  00000+0 0  9990
2 39504   4.4262 339.9966 0001536 249.5598 194.6974  1.00268979 25372
GPM-CORE                
1 39574U 14009C   20358.14361615  .00004980  00000-0  76356-4 0  9999
2 39574  65.0053 229.8339 0009992 274.2609  85.7395 15.55586642387411
MMS 1                   
1 40482U 15011A   20347.02271236 -.00000570  00000-0  00000+0 0  9997
2 40482  31.6267 119.0743 8491054  26.5023 357.3613  0.28535818 11728
MMS 2                   
1 40483U 15011B   20354.03394249 -.00000793  00000-0  00000+0 0  9994
2 40483  31.7133 119.0303 8487766  26.7153 357.0870  0.28532956 11727
MMS 3                   
1 40484U 15011C   20349.26880407 -.00000956  00000-0  00000+0 0  9991
2 40484  31.6537 119.0785 8492315  26.5606 228.1198  0.28543162 11706
MMS 4                   
1 40485U 15011D   20344.41666667 -.00000146  00000-0  00000-0 0  9996
2 40485  31.6067 119.1341 8492858  26.3977  89.8071  0.28533920 11708
TDRS 13                 
1 42915U 17047A   20357.24148206 -.00000095  00000-0  00000-0 0  9999
2 42915   5.2863 330.5086 0012158  96.9675  99.1547  1.00272580 12262
JPSS-1                  
1 43013U 17073A   20358.11298825  .00000001  00000-0  21257-4 0  9995
2 43013  98.7375 293.2769 0001142 100.0257 260.1048 14.19545746160423
